{
  "type": "FeatureCollection",
  "features": [
    {
      "type": "Feature",
      "properties": {
        "norad_id": 43260,
        "name": "GAOFEN-1 03",
        "group": "resource",
        "lat": 78.83712418304958,
        "lon": -91.6657921660443,
        "alt_km": 634.1488699244519,
        "timestamp": "2025-12-10T14:53:36.780186+00:00",
        "meta_object_name": "GAOFEN-1 03",
        "meta_object_id": "2018-031B",
        "meta_epoch": "2025-12-10T07:56:47.680224",
        "meta_mean_motion": 14.76429013,
        "meta_eccentricity": 0.00021458,
        "meta_inclination": 98.0802,
        "meta_ra_of_asc_node": 41.9966,
        "meta_arg_of_pericenter": 333.0106,
        "meta_mean_anomaly": 27.0992,
        "meta_ephemeris_type": 0,
        "meta_classification_type": "U",
        "meta_norad_cat_id": 43260,
        "meta_element_set_no": 999,
        "meta_rev_at_epoch": 41482,
        "meta_bstar": 0.00022499336,
        "meta_mean_motion_dot": 1.513e-05,
        "meta_mean_motion_ddot": 0,
        "tle_line1": "1 43260U 18031B   25344.33110741  .00001513  00000+0  22499-3 0  9994",
        "tle_line2": "2 43260  98.0802  41.9966 0002145 333.0106  27.0992 14.76429013414822"
      },
      "geometry": {
        "type": "Point",
        "coordinates": [
          -91.6657921660443,
          78.83712418304958
        ]
      }
    },
    {
      "type": "Feature",
      "properties": {
        "norad_id": 43262,
        "name": "GAOFEN-1 04",
        "group": "resource",
        "lat": -46.44275120647347,
        "lon": -146.13787772809468,
        "alt_km": 648.1742394116745,
        "timestamp": "2025-12-10T14:53:36.780195+00:00",
        "meta_object_name": "GAOFEN-1 04",
        "meta_object_id": "2018-031D",
        "meta_epoch": "2025-12-10T07:21:45.587232",
        "meta_mean_motion": 14.76440564,
        "meta_eccentricity": 0.00011567,
        "meta_inclination": 98.0806,
        "meta_ra_of_asc_node": 42.1411,
        "meta_arg_of_pericenter": 55.4836,
        "meta_mean_anomaly": 304.6483,
        "meta_ephemeris_type": 0,
        "meta_classification_type": "U",
        "meta_norad_cat_id": 43262,
        "meta_element_set_no": 999,
        "meta_rev_at_epoch": 41481,
        "meta_bstar": 0.00016587109,
        "meta_mean_motion_dot": 1.102e-05,
        "meta_mean_motion_ddot": 0,
        "tle_line1": "1 43262U 18031D   25344.30677763  .00001102  00000+0  16587-3 0  9990",
        "tle_line2": "2 43262  98.0806  42.1411 0001156  55.4836 304.6483 14.76440564414814"
      },
      "geometry": {
        "type": "Point",
        "coordinates": [
          -146.13787772809468,
          -46.44275120647347
        ]
      }
    },
    {
      "type": "Feature",
      "properties": {
        "norad_id": 43437,
        "name": "SENTINEL-3B",
        "group": "resource",
        "lat": 51.309817328321216,
        "lon": 38.908992548170396,
        "alt_km": 797.1767573243396,
        "timestamp": "2025-12-10T14:53:36.780205+00:00",
        "meta_object_name": "SENTINEL-3B",
        "meta_object_id": "2018-039A",
        "meta_epoch": "2025-12-10T04:33:04.965120",
        "meta_mean_motion": 14.26741344,
        "meta_eccentricity": 0.00015583,
        "meta_inclination": 98.6268,
        "meta_ra_of_asc_node": 49.4113,
        "meta_arg_of_pericenter": 105.5141,
        "meta_mean_anomaly": 254.6211,
        "meta_ephemeris_type": 0,
        "meta_classification_type": "U",
        "meta_norad_cat_id": 43437,
        "meta_element_set_no": 999,
        "meta_rev_at_epoch": 39717,
        "meta_bstar": 0.00011425115,
        "meta_mean_motion_dot": 2.33e-06,
        "meta_mean_motion_ddot": 0,
        "tle_line1": "1 43437U 18039A   25344.18964080  .00000233  00000+0  11425-3 0  9999",
        "tle_line2": "2 43437  98.6268  49.4113 0001558 105.5141 254.6211 14.26741344397174"
      },
      "geometry": {
        "type": "Point",
        "coordinates": [
          38.908992548170396,
          51.309817328321216
        ]
      }
    },
    {
      "type": "Feature",
      "properties": {
        "norad_id": 43461,
        "name": "GAOFEN-5 01",
        "group": "resource",
        "lat": 34.65682744946188,
        "lon": 133.43674101229033,
        "alt_km": 690.3068160438988,
        "timestamp": "2025-12-10T14:53:36.780214+00:00",
        "meta_object_name": "GAOFEN-5 01",
        "meta_object_id": "2018-043A",
        "meta_epoch": "2025-12-10T04:21:59.597856",
        "meta_mean_motion": 14.60405558,
        "meta_eccentricity": 0.00011275,
        "meta_inclination": 98.4322,
        "meta_ra_of_asc_node": 307.1045,
        "meta_arg_of_pericenter": 350.6104,
        "meta_mean_anomaly": 9.5074,
        "meta_ephemeris_type": 0,
        "meta_classification_type": "U",
        "meta_norad_cat_id": 43461,
        "meta_element_set_no": 999,
        "meta_rev_at_epoch": 40410,
        "meta_bstar": 0.00017672102,
        "meta_mean_motion_dot": 8.07e-06,
        "meta_mean_motion_ddot": 0,
        "tle_line1": "1 43461U 18043A   25344.18193979  .00000807  00000+0  17672-3 0  9999",
        "tle_line2": "2 43461  98.4322 307.1045 0001127 350.6104   9.5074 14.60405558404100"
      },
      "geometry": {
        "type": "Point",
        "coordinates": [
          133.43674101229033,
          34.65682744946188
        ]
      }
    },
    {
      "type": "Feature",
      "properties": {
        "norad_id": 43484,
        "name": "GAOFEN-6",
        "group": "resource",
        "lat": 16.908745579190406,
        "lon": 46.569427404556265,
        "alt_km": 635.0858191530342,
        "timestamp": "2025-12-10T14:53:36.780223+00:00",
        "meta_object_name": "GAOFEN-6",
        "meta_object_id": "2018-048A",
        "meta_epoch": "2025-12-10T06:41:04.624800",
        "meta_mean_motion": 14.7655906,
        "meta_eccentricity": 0.00132882,
        "meta_inclination": 97.803,
        "meta_ra_of_asc_node": 48.628,
        "meta_arg_of_pericenter": 70.7103,
        "meta_mean_anomaly": 289.5543,
        "meta_ephemeris_type": 0,
        "meta_classification_type": "U",
        "meta_norad_cat_id": 43484,
        "meta_element_set_no": 999,
        "meta_rev_at_epoch": 40551,
        "meta_bstar": 0.00020380425,
        "meta_mean_motion_dot": 1.374e-05,
        "meta_mean_motion_ddot": 0,
        "tle_line1": "1 43484U 18048A   25344.27852575  .00001374  00000+0  20380-3 0  9993",
        "tle_line2": "2 43484  97.8030  48.6280 0013288  70.7103 289.5543 14.76559060405514"
      },
      "geometry": {
        "type": "Point",
        "coordinates": [
          46.569427404556265,
          16.908745579190406
        ]
      }
    },
    {
      "type": "Feature",
      "properties": {
        "norad_id": 43585,
        "name": "GAOFEN-11 01",
        "group": "resource",
        "lat": -9.146047631177948,
        "lon": 48.73176649784247,
        "alt_km": 420.78952115196626,
        "timestamp": "2025-12-10T14:53:36.780237+00:00",
        "meta_object_name": "GAOFEN-11 01",
        "meta_object_id": "2018-063A",
        "meta_epoch": "2025-12-10T07:10:54.414624",
        "meta_mean_motion": 15.49113069,
        "meta_eccentricity": 0.00045003,
        "meta_inclination": 97.1556,
        "meta_ra_of_asc_node": 47.2542,
        "meta_arg_of_pericenter": 325.1082,
        "meta_mean_anomaly": 34.9874,
        "meta_ephemeris_type": 0,
        "meta_classification_type": "U",
        "meta_norad_cat_id": 43585,
        "meta_element_set_no": 999,
        "meta_rev_at_epoch": 41104,
        "meta_bstar": 0.00045611071,
        "meta_mean_motion_dot": 0.00024738,
        "meta_mean_motion_ddot": 0,
        "tle_line1": "1 43585U 18063A   25344.29924091  .00024738  00000+0  45611-3 0  9990",
        "tle_line2": "2 43585  97.1556  47.2542 0004500 325.1082  34.9874 15.49113069411048"
      },
      "geometry": {
        "type": "Point",
        "coordinates": [
          48.73176649784247,
          -9.146047631177948
        ]
      }
    },
    {
      "type": "Feature",
      "properties": {
        "norad_id": 43613,
        "name": "ICESAT-2",
        "group": "resource",
        "lat": -66.4187840929412,
        "lon": 55.563574136310386,
        "alt_km": 488.31427468655875,
        "timestamp": "2025-12-10T14:53:36.780247+00:00",
        "meta_object_name": "ICESAT-2",
        "meta_object_id": "2018-070A",
        "meta_epoch": "2025-12-10T05:57:40.163328",
        "meta_mean_motion": 15.28294292,
        "meta_eccentricity": 0.00024365,
        "meta_inclination": 92.0043,
        "meta_ra_of_asc_node": 240.065,
        "meta_arg_of_pericenter": 155.1864,
        "meta_mean_anomaly": 204.9503,
        "meta_ephemeris_type": 0,
        "meta_classification_type": "U",
        "meta_norad_cat_id": 43613,
        "meta_element_set_no": 999,
        "meta_rev_at_epoch": 40360,
        "meta_bstar": 0.00066670631,
        "meta_mean_motion_dot": 0.00018387,
        "meta_mean_motion_ddot": 0,
        "tle_line1": "1 43613U 18070A   25344.24838152  .00018387  00000+0  66671-3 0  9999",
        "tle_line2": "2 43613  92.0043 240.0650 0002436 155.1864 204.9503 15.28294292403609"
      },
      "geometry": {
        "type": "Point",
        "coordinates": [
          55.563574136310386,
          -66.4187840929412
        ]
      }
    }
  ]
}